CCSDS_OMM_VERS = 2.0
CREATION_DATE  = 
ORIGINATOR     = 

OBJECT_NAME    = NAVSTAR 85 (USA 581)
OBJECT_ID      = 2026-017A
CENTER_NAME    = EARTH
REF_FRAME      = TEME
TIME_SYSTEM    = UTC
MEAN_ELEMENT_THEORY = SGP/SGP4

EPOCH          = 2026-02-23T00:34:14.193696
MEAN_MOTION    = 2.00560997
ECCENTRICITY   = .00011415
INCLINATION    = 55.0119
RA_OF_ASC_NODE = 93.3358
ARG_OF_PERICENTER = 31.5498
MEAN_ANOMALY   = 328.5234

EPHEMERIS_TYPE = 0
CLASSIFICATION_TYPE = U
NORAD_CAT_ID   = 67588
ELEMENT_SET_NO = 999
REV_AT_EPOCH   = 42932
BSTAR          = 0
MEAN_MOTION_DOT = .1E-7
MEAN_MOTION_DDOT = 0

CCSDS_OMM_VERS = 2.0
CREATION_DATE  = 
ORIGINATOR     = 

OBJECT_NAME    = STARLINK-36641
OBJECT_ID      = 2026-018A
CENTER_NAME    = EARTH
REF_FRAME      = TEME
TIME_SYSTEM    = UTC
MEAN_ELEMENT_THEORY = SGP/SGP4

EPOCH          = 2026-02-24T18:54:41.469408
MEAN_MOTION    = 15.75285713
ECCENTRICITY   = .0006489
INCLINATION    = 97.2841
RA_OF_ASC_NODE = 120.9109
ARG_OF_PERICENTER = 146.0671
MEAN_ANOMALY   = 214.1010

EPHEMERIS_TYPE = 0
CLASSIFICATION_TYPE = U
NORAD_CAT_ID   = 67589
ELEMENT_SET_NO = 999
REV_AT_EPOCH   = 527
BSTAR          = .18653E-2
MEAN_MOTION_DOT = .289138E-2
MEAN_MOTION_DDOT = 0

CCSDS_OMM_VERS = 2.0
CREATION_DATE  = 
ORIGINATOR     = 

OBJECT_NAME    = STARLINK-36376
OBJECT_ID      = 2026-018B
CENTER_NAME    = EARTH
REF_FRAME      = TEME
TIME_SYSTEM    = UTC
MEAN_ELEMENT_THEORY = SGP/SGP4

EPOCH          = 2026-02-24T20:00:15.195744
MEAN_MOTION    = 15.75276916
ECCENTRICITY   = .0002073
INCLINATION    = 97.2852
RA_OF_ASC_NODE = 121.0028
ARG_OF_PERICENTER = 131.9842
MEAN_ANOMALY   = 228.1600

EPHEMERIS_TYPE = 0
CLASSIFICATION_TYPE = U
NORAD_CAT_ID   = 67590
ELEMENT_SET_NO = 999
REV_AT_EPOCH   = 528
BSTAR          = .14008E-2
MEAN_MOTION_DOT = .21497E-2
MEAN_MOTION_DDOT = 0

CCSDS_OMM_VERS = 2.0
CREATION_DATE  = 
ORIGINATOR     = 

OBJECT_NAME    = STARLINK-36391
OBJECT_ID      = 2026-018C
CENTER_NAME    = EARTH
REF_FRAME      = TEME
TIME_SYSTEM    = UTC
MEAN_ELEMENT_THEORY = SGP/SGP4

EPOCH          = 2026-02-24T13:18:11.644416
MEAN_MOTION    = 15.80871150
ECCENTRICITY   = .0001883
INCLINATION    = 97.2859
RA_OF_ASC_NODE = 120.7712
ARG_OF_PERICENTER = 111.2885
MEAN_ANOMALY   = 248.8584

EPHEMERIS_TYPE = 0
CLASSIFICATION_TYPE = U
NORAD_CAT_ID   = 67591
ELEMENT_SET_NO = 999
REV_AT_EPOCH   = 524
BSTAR          = .89271E-3
MEAN_MOTION_DOT = .174766E-2
MEAN_MOTION_DDOT = 0

CCSDS_OMM_VERS = 2.0
CREATION_DATE  = 
ORIGINATOR     = 

OBJECT_NAME    = STARLINK-36603
OBJECT_ID      = 2026-018D
CENTER_NAME    = EARTH
REF_FRAME      = TEME
TIME_SYSTEM    = UTC
MEAN_ELEMENT_THEORY = SGP/SGP4

EPOCH          = 2026-02-24T19:54:09.302976
MEAN_MOTION    = 15.75262904
ECCENTRICITY   = .0002227
INCLINATION    = 97.2849
RA_OF_ASC_NODE = 121.0087
ARG_OF_PERICENTER = 120.3181
MEAN_ANOMALY   = 239.8305

EPHEMERIS_TYPE = 0
CLASSIFICATION_TYPE = U
NORAD_CAT_ID   = 67592
ELEMENT_SET_NO = 999
REV_AT_EPOCH   = 528
BSTAR          = .10342E-2
MEAN_MOTION_DOT = .157506E-2
MEAN_MOTION_DDOT = 0

CCSDS_OMM_VERS = 2.0
CREATION_DATE  = 
ORIGINATOR     = 

OBJECT_NAME    = STARLINK-36634
OBJECT_ID      = 2026-018E
CENTER_NAME    = EARTH
REF_FRAME      = TEME
TIME_SYSTEM    = UTC
MEAN_ELEMENT_THEORY = SGP/SGP4

EPOCH          = 2026-02-24T15:08:31.906176
MEAN_MOTION    = 15.75299423
ECCENTRICITY   = .0001637
INCLINATION    = 97.2842
RA_OF_ASC_NODE = 120.8197
ARG_OF_PERICENTER = 291.2288
MEAN_ANOMALY   = 68.8802

EPHEMERIS_TYPE = 0
CLASSIFICATION_TYPE = U
NORAD_CAT_ID   = 67593
ELEMENT_SET_NO = 999
REV_AT_EPOCH   = 525
BSTAR          = .1576E-2
MEAN_MOTION_DOT = .242897E-2
MEAN_MOTION_DDOT = 0

CCSDS_OMM_VERS = 2.0
CREATION_DATE  = 
ORIGINATOR     = 

OBJECT_NAME    = STARLINK-36638
OBJECT_ID      = 2026-018F
CENTER_NAME    = EARTH
REF_FRAME      = TEME
TIME_SYSTEM    = UTC
MEAN_ELEMENT_THEORY = SGP/SGP4

EPOCH          = 2026-02-24T19:18:28.681632
MEAN_MOTION    = 15.80954164
ECCENTRICITY   = .0001522
INCLINATION    = 97.2854
RA_OF_ASC_NODE = 121.0441
ARG_OF_PERICENTER = 110.8605
MEAN_ANOMALY   = 249.2826

EPHEMERIS_TYPE = 0
CLASSIFICATION_TYPE = U
NORAD_CAT_ID   = 67594
ELEMENT_SET_NO = 999
REV_AT_EPOCH   = 528
BSTAR          = .171E-2
MEAN_MOTION_DOT = .342768E-2
MEAN_MOTION_DDOT = 0

CCSDS_OMM_VERS = 2.0
CREATION_DATE  = 
ORIGINATOR     = 

OBJECT_NAME    = STARLINK-36628
OBJECT_ID      = 2026-018G
CENTER_NAME    = EARTH
REF_FRAME      = TEME
TIME_SYSTEM    = UTC
MEAN_ELEMENT_THEORY = SGP/SGP4

EPOCH          = 2026-02-24T15:33:57.369888
MEAN_MOTION    = 15.75200285
ECCENTRICITY   = .0002096
INCLINATION    = 97.2836
RA_OF_ASC_NODE = 120.7944
ARG_OF_PERICENTER = 44.2202
MEAN_ANOMALY   = 315.9231

EPHEMERIS_TYPE = 0
CLASSIFICATION_TYPE = U
NORAD_CAT_ID   = 67595
ELEMENT_SET_NO = 999
REV_AT_EPOCH   = 525
BSTAR          = .16236E-2
MEAN_MOTION_DOT = .249367E-2
MEAN_MOTION_DDOT = 0

CCSDS_OMM_VERS = 2.0
CREATION_DATE  = 
ORIGINATOR     = 

OBJECT_NAME    = STARLINK-36629
OBJECT_ID      = 2026-018H
CENTER_NAME    = EARTH
REF_FRAME      = TEME
TIME_SYSTEM    = UTC
MEAN_ELEMENT_THEORY = SGP/SGP4

EPOCH          = 2026-02-24T20:19:34.034880
MEAN_MOTION    = 15.75255239
ECCENTRICITY   = .0001365
INCLINATION    = 97.2849
RA_OF_ASC_NODE = 120.9829
ARG_OF_PERICENTER = 116.1209
MEAN_ANOMALY   = 244.0197

EPHEMERIS_TYPE = 0
CLASSIFICATION_TYPE = U
NORAD_CAT_ID   = 67596
ELEMENT_SET_NO = 999
REV_AT_EPOCH   = 528
BSTAR          = .12811E-2
MEAN_MOTION_DOT = .195958E-2
MEAN_MOTION_DDOT = 0

CCSDS_OMM_VERS = 2.0
CREATION_DATE  = 
ORIGINATOR     = 

OBJECT_NAME    = STARLINK-36384
OBJECT_ID      = 2026-018J
CENTER_NAME    = EARTH
REF_FRAME      = TEME
TIME_SYSTEM    = UTC
MEAN_ELEMENT_THEORY = SGP/SGP4

EPOCH          = 2026-02-24T20:00:00.999360
MEAN_MOTION    = 15.75131253
ECCENTRICITY   = .0001042
INCLINATION    = 97.2853
RA_OF_ASC_NODE = 121.0677
ARG_OF_PERICENTER = 75.1297
MEAN_ANOMALY   = 74.0545

EPHEMERIS_TYPE = 0
CLASSIFICATION_TYPE = U
NORAD_CAT_ID   = 67597
ELEMENT_SET_NO = 999
REV_AT_EPOCH   = 533
BSTAR          = .1595E-3
MEAN_MOTION_DOT = .23665E-3
MEAN_MOTION_DDOT = 0

CCSDS_OMM_VERS = 2.0
CREATION_DATE  = 
ORIGINATOR     = 

OBJECT_NAME    = STARLINK-36358
OBJECT_ID      = 2026-018K
CENTER_NAME    = EARTH
REF_FRAME      = TEME
TIME_SYSTEM    = UTC
MEAN_ELEMENT_THEORY = SGP/SGP4

EPOCH          = 2026-02-24T20:10:55.472448
MEAN_MOTION    = 15.75308455
ECCENTRICITY   = .0001572
INCLINATION    = 97.2845
RA_OF_ASC_NODE = 120.9911
ARG_OF_PERICENTER = 117.0217
MEAN_ANOMALY   = 243.1209

EPHEMERIS_TYPE = 0
CLASSIFICATION_TYPE = U
NORAD_CAT_ID   = 67598
ELEMENT_SET_NO = 999
REV_AT_EPOCH   = 528
BSTAR          = .20488E-2
MEAN_MOTION_DOT = .318778E-2
MEAN_MOTION_DDOT = 0

CCSDS_OMM_VERS = 2.0
CREATION_DATE  = 
ORIGINATOR     = 

OBJECT_NAME    = STARLINK-36582
OBJECT_ID      = 2026-018L
CENTER_NAME    = EARTH
REF_FRAME      = TEME
TIME_SYSTEM    = UTC
MEAN_ELEMENT_THEORY = SGP/SGP4

EPOCH          = 2026-02-24T03:02:17.587680
MEAN_MOTION    = 15.75247869
ECCENTRICITY   = .00012819
INCLINATION    = 97.2855
RA_OF_ASC_NODE = 120.2807
ARG_OF_PERICENTER = 94.6226
MEAN_ANOMALY   = 265.5185

EPHEMERIS_TYPE = 0
CLASSIFICATION_TYPE = U
NORAD_CAT_ID   = 67599
ELEMENT_SET_NO = 999
REV_AT_EPOCH   = 522
BSTAR          = .10126315E-2
MEAN_MOTION_DOT = .15405E-2
MEAN_MOTION_DDOT = 0

