NAVSTAR 85 (USA 581)    
1 67588U 26017A   26054.02377539  .00000001  00000+0  00000+0 0  9992
2 67588  55.0119  93.3358 0001141  31.5498 328.5234  2.00560997429320
STARLINK-36641          
1 67589U 26018A   26055.78797997  .00289138  00000+0  18653-2 0  9998
2 67589  97.2841 120.9109 0006489 146.0671 214.1010 15.75285713  5279
STARLINK-36376          
1 67590U 26018B   26055.83350921  .00214970  00000+0  14008-2 0  9990
2 67590  97.2852 121.0028 0002073 131.9842 228.1600 15.75276916  5289
STARLINK-36391          
1 67591U 26018C   26055.55430144  .00174766  00000+0  89271-3 0  9999
2 67591  97.2859 120.7712 0001883 111.2885 248.8584 15.80871150  5242
STARLINK-36603          
1 67592U 26018D   26055.82927434  .00157506  00000+0  10342-2 0  9998
2 67592  97.2849 121.0087 0002227 120.3181 239.8305 15.75262904  5284
STARLINK-36634          
1 67593U 26018E   26055.63092484  .00242897  00000+0  15760-2 0  9993
2 67593  97.2842 120.8197 0001637 291.2288  68.8802 15.75299423  5252
STARLINK-36638          
1 67594U 26018F   26055.80449863  .00342768  00000+0  17100-2 0  9998
2 67594  97.2854 121.0441 0001522 110.8605 249.2826 15.80954164  5283
STARLINK-36628          
1 67595U 26018G   26055.64858067  .00249367  00000+0  16236-2 0  9991
2 67595  97.2836 120.7944 0002096  44.2202 315.9231 15.75200285  5258
STARLINK-36629          
1 67596U 26018H   26055.84692170  .00195958  00000+0  12811-2 0  9996
2 67596  97.2849 120.9829 0001365 116.1209 244.0197 15.75255239  5286
STARLINK-36384          
1 67597U 26018J   26055.83334490  .00023665  00000+0  15950-3 0  9997
2 67597  97.2853 121.0677 0001042  75.1297  74.0545 15.75131253  5331
STARLINK-36358          
1 67598U 26018K   26055.84091982  .00318778  00000+0  20488-2 0  9998
2 67598  97.2845 120.9911 0001572 117.0217 243.1209 15.75308455  5288
STARLINK-36582          
1 67599U 26018L   26055.12659245  .00154050  00000+0  10126-2 0  9991
2 67599  97.2855 120.2807 0001281  94.6226 265.5185 15.75247869  5220
